SAC-D
1 37673U 11024A   13310.45040532 +.00000000 +00000+0 +13494-4 6  9063
2 37673  98.0124 315.8581 0001377  84.0891 147.1269 14.72329528128993
